STARLINK-32251          
1 60940U 24155S   25070.10835923  .00000124  00000+0  16305-4 0  9996
2 60940  53.1618  18.5604 0001315  88.1113 272.0038 15.30192930 30560
STARLINK-32224          
1 60941U 24155T   25070.10521596 -.00002756  00000+0 -81042-4 0  9990
2 60941  53.1608  18.5417 0001199  71.3925 288.7205 15.30174057 30613
STARLINK-32184          
1 60942U 24155U   25070.04726326  .00000393  00000+0  25398-4 0  9997
2 60942  53.1635  18.8926 0001190  82.3365 277.7771 15.30195236 30611
STARLINK-32288          
1 60943U 24155V   25070.12207578  .00000301  00000+0  22295-4 0  9992
2 60943  53.1627  18.6429 0001164 104.4123 255.7007 15.30198645 30624
STARLINK-32276          
1 60944U 24155W   25070.05360134  .00000437  00000+0  26904-4 0  9994
2 60944  53.1627  18.9256 0001416  58.7513 301.3627 15.30185814 30710
STARLINK-11289 [DTC]    
1 60991U 24158B   25069.85853048 -.00000060  00000+0  43489-5 0  9997
2 60991  53.1587 274.6152 0000336  74.0220 286.0835 15.69730248 30415
STARLINK-11282 [DTC]    
1 60992U 24158C   25069.80960465  .00000817  00000+0  11613-4 0  9997
2 60992  53.1580 275.0268 0001255  25.3843 334.7236 15.69694557 30444
STARLINK-11283 [DTC]    
1 60993U 24158D   25069.84393040 -.00001716  00000+0 -92964-5 0  9991
2 60993  53.1589 275.2451 0001627 130.6255 229.4905 15.69711390 30448
STARLINK-11267 [DTC]    
1 60994U 24158E   25069.83901052  .00001726  00000+0  19079-4 0  9993
2 60994  53.1583 275.2159 0000771  65.1556 294.9542 15.69734086 30455
STARLINK-11269 [DTC]    
1 60995U 24158F   25069.83412258 -.00000274  00000+0  25966-5 0  9990
2 60995  53.1593 275.1897 0001109  36.1052 324.0040 15.69707540 30431
STARLINK-11281 [DTC]    
1 60996U 24158G   25069.82921408 -.00001916  00000+0 -10965-4 0  9999
2 60996  53.1584 275.1509 0000644  98.5649 261.5442 15.69711880 30432
STARLINK-11260 [DTC]    
1 60997U 24158H   25069.78008411 -.00003342  00000+0 -16428-4 0  9990
2 60997  53.1600 257.6510 0001010  51.6163 308.4949 15.76728945 30732
STARLINK-11287 [DTC]    
1 60998U 24158J   25069.82430474 -.00000825  00000+0 -19556-5 0  9993
2 60998  53.1592 275.1179 0000985 120.1947 239.9169 15.69715602 30438
STARLINK-11270 [DTC]    
1 60999U 24158K   25069.81940840 -.00001134  00000+0 -45037-5 0  9993
2 60999  53.1588 275.0841 0001115  32.5572 327.5515 15.69705940 30438
STARLINK-11290 [DTC]    
1 61000U 24158L   25069.81453048 -.00006650  00000+0 -50134-4 0  9997
2 61000  53.1587 275.0537 0001575  44.5866 315.5278 15.69678627 30504
STARLINK-11274 [DTC]    
1 61001U 24158M   25069.86835150 -.00001051  00000+0 -38171-5 0  9999
2 61001  53.1600 274.6766 0000933  60.9241 299.1870 15.69719141 30441
STARLINK-11288 [DTC]    
1 61002U 24158N   25069.86344590 -.00002102  00000+0 -12486-4 0  9991
2 61002  53.1587 274.6429 0001110 128.0523 232.0595 15.69720844 30463
STARLINK-32279          
1 61003U 24158P   25070.10239170  .00001382  00000+0  58786-4 0  9998
2 61003  53.1580 314.4152 0001073 128.6567 231.4530 15.30200048 29989
STARLINK-32336          
1 61004U 24158Q   25070.09817022  .00001537  00000+0  63987-4 0  9996
2 61004  53.1590 314.3912 0001187  71.9106 288.2024 15.30206519 29986
STARLINK-32284          
1 61005U 24158R   25069.97493287  .00000375  00000+0  24774-4 0  9995
2 61005  53.1580 315.0484 0001065 111.8240 248.2874 15.30197231 29918
STARLINK-32282          
1 61006U 24158S   25070.08867832  .00001436  00000+0  60628-4 0  9998
2 61006  53.1592 314.3242 0001322  98.7523 261.3627 15.30192899 29983
STARLINK-32360          
1 61007U 24158T   25070.16231989  .00009120  00000+0  31938-3 0  9995
2 61007  53.1590 298.7825 0001356  95.8087 264.3068 15.30230530 30152
STARLINK-32340          
1 61008U 24158U   25069.98547036  .00000104  00000+0  15621-4 0  9992
2 61008  53.1601 315.0316 0000941 100.4905 259.6202 15.30202132 29911
