OBJECT_NAME,OBJECT_ID,EPOCH,MEAN_MOTION,ECCENTRICITY,INCLINATION,RA_OF_ASC_NODE,ARG_OF_PERICENTER,MEAN_ANOMALY,EPHEMERIS_TYPE,CLASSIFICATION_TYPE,NORAD_CAT_ID,ELEMENT_SET_NO,REV_AT_EPOCH,BSTAR,MEAN_MOTION_DOT,MEAN_MOTION_DDOT
STARLINK-32251,2024-155S,2025-03-11T02:36:02.237472,15.30192930,.0001315,53.1618,18.5604,88.1113,272.0038,0,U,60940,999,3056,.16305E-4,.124E-5,0
STARLINK-32224,2024-155T,2025-03-11T02:31:30.658944,15.30174057,.0001199,53.1608,18.5417,71.3925,288.7205,0,U,60941,999,3061,-.81042E-4,-.2756E-4,0
STARLINK-32184,2024-155U,2025-03-11T01:08:03.545664,15.30195236,.000119,53.1635,18.8926,82.3365,277.7771,0,U,60942,999,3061,.25398E-4,.393E-5,0
STARLINK-32288,2024-155V,2025-03-11T02:55:47.347392,15.30198645,.0001164,53.1627,18.6429,104.4123,255.7007,0,U,60943,999,3062,.22295E-4,.301E-5,0
STARLINK-32276,2024-155W,2025-03-11T01:17:11.155776,15.30185814,.0001416,53.1627,18.9256,58.7513,301.3627,0,U,60944,999,3071,.26904E-4,.437E-5,0
STARLINK-11289 [DTC],2024-158B,2025-03-10T20:36:17.033472,15.69730248,.0000336,53.1587,274.6152,74.0220,286.0835,0,U,60991,999,3041,.43489E-5,-.6E-6,0
STARLINK-11282 [DTC],2024-158C,2025-03-10T19:25:49.841760,15.69694557,.0001255,53.1580,275.0268,25.3843,334.7236,0,U,60992,999,3044,.11613E-4,.817E-5,0
STARLINK-11283 [DTC],2024-158D,2025-03-10T20:15:15.586560,15.69711390,.0001627,53.1589,275.2451,130.6255,229.4905,0,U,60993,999,3044,-.92964E-5,-.1716E-4,0
STARLINK-11267 [DTC],2024-158E,2025-03-10T20:08:10.508928,15.69734086,.0000771,53.1583,275.2159,65.1556,294.9542,0,U,60994,999,3045,.19079E-4,.1726E-4,0
STARLINK-11269 [DTC],2024-158F,2025-03-10T20:01:08.190912,15.69707540,.0001109,53.1593,275.1897,36.1052,324.0040,0,U,60995,999,3043,.25966E-5,-.274E-5,0
STARLINK-11281 [DTC],2024-158G,2025-03-10T19:54:04.096512,15.69711880,.0000644,53.1584,275.1509,98.5649,261.5442,0,U,60996,999,3043,-.10965E-4,-.1916E-4,0
STARLINK-11260 [DTC],2024-158H,2025-03-10T18:43:19.267104,15.76728945,.000101,53.1600,257.6510,51.6163,308.4949,0,U,60997,999,3073,-.16428E-4,-.3342E-4,0
STARLINK-11287 [DTC],2024-158J,2025-03-10T19:46:59.929536,15.69715602,.0000985,53.1592,275.1179,120.1947,239.9169,0,U,60998,999,3043,-.19556E-5,-.825E-5,0
STARLINK-11270 [DTC],2024-158K,2025-03-10T19:39:56.885760,15.69705940,.0001115,53.1588,275.0841,32.5572,327.5515,0,U,60999,999,3043,-.45037E-5,-.1134E-4,0
STARLINK-11290 [DTC],2024-158L,2025-03-10T19:32:55.433472,15.69678627,.0001575,53.1587,275.0537,44.5866,315.5278,0,U,61000,999,3050,-.50134E-4,-.665E-4,0
STARLINK-11274 [DTC],2024-158M,2025-03-10T20:50:25.569600,15.69719141,.0000933,53.1600,274.6766,60.9241,299.1870,0,U,61001,999,3044,-.38171E-5,-.1051E-4,0
STARLINK-11288 [DTC],2024-158N,2025-03-10T20:43:21.725760,15.69720844,.000111,53.1587,274.6429,128.0523,232.0595,0,U,61002,999,3046,-.12486E-4,-.2102E-4,0
STARLINK-32279,2024-158P,2025-03-11T02:27:26.642880,15.30200048,.0001073,53.1580,314.4152,128.6567,231.4530,0,U,61003,999,2998,.58786E-4,.1382E-4,0
STARLINK-32336,2024-158Q,2025-03-11T02:21:21.907008,15.30206519,.0001187,53.1590,314.3912,71.9106,288.2024,0,U,61004,999,2998,.63987E-4,.1537E-4,0
STARLINK-32284,2024-158R,2025-03-10T23:23:54.199968,15.30197231,.0001065,53.1580,315.0484,111.8240,248.2874,0,U,61005,999,2991,.24774E-4,.375E-5,0
STARLINK-32282,2024-158S,2025-03-11T02:07:41.806848,15.30192899,.0001322,53.1592,314.3242,98.7523,261.3627,0,U,61006,999,2998,.60628E-4,.1436E-4,0
STARLINK-32360,2024-158T,2025-03-11T03:53:44.438496,15.30230530,.0001356,53.1590,298.7825,95.8087,264.3068,0,U,61007,999,3015,.31938E-3,.912E-4,0
STARLINK-32340,2024-158U,2025-03-10T23:39:04.639104,15.30202132,.0000941,53.1601,315.0316,100.4905,259.6202,0,U,61008,999,2991,.15621E-4,.104E-5,0
